{
  "type": "FeatureCollection",
  "features": [
    {
      "type": "Feature",
      "properties": {
        "norad_id": 64903,
        "name": "CO3D 1",
        "group": "resource",
        "lat": 65.72138158763674,
        "lon": 57.67994034674144,
        "alt_km": 498.2124258825861,
        "timestamp": "2025-12-24T09:46:30.653549+00:00",
        "meta_object_name": "CO3D 1",
        "meta_object_id": "2025-156E",
        "meta_epoch": "2025-12-24T04:44:35.257056",
        "meta_mean_motion": 15.2021003,
        "meta_eccentricity": 8.85e-05,
        "meta_inclination": 97.4338,
        "meta_ra_of_asc_node": 74.2992,
        "meta_arg_of_pericenter": 76.7882,
        "meta_mean_anomaly": 283.3451,
        "meta_ephemeris_type": 0,
        "meta_classification_type": "U",
        "meta_norad_cat_id": 64903,
        "meta_element_set_no": 999,
        "meta_rev_at_epoch": 2294,
        "meta_bstar": 0.00030602,
        "meta_mean_motion_dot": 6.564e-05,
        "meta_mean_motion_ddot": 0,
        "tle_line1": "1 64903U 25156E   25358.19763029  .00006564  00000+0  30602-3 0  9995",
        "tle_line2": "2 64903  97.4338  74.2992 0000885  76.7882 283.3451 15.20210030 22947"
      },
      "geometry": {
        "type": "Point",
        "coordinates": [
          57.67994034674144,
          65.72138158763674
        ]
      }
    },
    {
      "type": "Feature",
      "properties": {
        "norad_id": 66514,
        "name": "SENTINEL-6B",
        "group": "resource",
        "lat": -62.17343720866897,
        "lon": 15.595478025332028,
        "alt_km": 1338.1261298426598,
        "timestamp": "2025-12-24T09:46:30.653559+00:00",
        "meta_object_name": "SENTINEL-6B",
        "meta_object_id": "2025-264A",
        "meta_epoch": "2025-12-23T02:27:52.423776",
        "meta_mean_motion": 12.8092954,
        "meta_eccentricity": 0.00078893,
        "meta_inclination": 66.0396,
        "meta_ra_of_asc_node": 140.9099,
        "meta_arg_of_pericenter": 269.9741,
        "meta_mean_anomaly": 90.037,
        "meta_ephemeris_type": 0,
        "meta_classification_type": "U",
        "meta_norad_cat_id": 66514,
        "meta_element_set_no": 999,
        "meta_rev_at_epoch": 461,
        "meta_bstar": -1.0381303e-05,
        "meta_mean_motion_dot": -6.3e-07,
        "meta_mean_motion_ddot": 0,
        "tle_line1": "1 66514U 25264A   25357.10269009 -.00000063  00000+0 -10381-4 0  9997",
        "tle_line2": "2 66514  66.0396 140.9099 0007889 269.9741  90.0370 12.80929540  4616"
      },
      "geometry": {
        "type": "Point",
        "coordinates": [
          15.595478025332028,
          -62.17343720866897
        ]
      }
    }
  ]
}